STARLINK-35043          
1 65436U 25194C   25267.94080358  .00043632  31037-5  12385-3 0  9993
2 65436  97.5912 120.5032 0000890 131.5391 228.5959 15.93628761  4677
STARLINK-35080          
1 65437U 25194D   25267.91670139 -.00044583  00000+0 -82195-3 0  9997
2 65437  97.6028 119.9474 0001534  92.3684  19.5455 15.49207269  3871
STARLINK-35068          
1 65438U 25194E   25267.91670139  .00035122  00000+0  64488-3 0  9990
2 65438  97.6062 119.9451 0001392  88.2688  19.8052 15.49177438  3875
STARLINK-35045          
1 65439U 25194F   25267.91670139  .00054773  00000+0  10025-2 0  9991
2 65439  97.6062 119.9464 0001634  88.8165  21.1824 15.49168357  3878
STARLINK-35050          
1 65440U 25194G   25267.91670139 -.00042237  00000+0 -77842-3 0  9998
2 65440  97.6028 119.9488 0001607  92.4619  23.2960 15.49205140  3880
STARLINK-35065          
1 65441U 25194H   25267.91670139 -.00037681  00000+0 -69444-3 0  9995
2 65441  97.6029 119.9501 0001646  98.4663  15.4060 15.49181243  3876
STARLINK-34679          
1 65442U 25194J   25267.91670139 -.00063187  00000+0 -11680-2 0  9994
2 65442  97.6028 119.9514 0001555  87.0642  32.5337 15.49216878  3937
STARLINK-34678          
1 65443U 25194K   25267.91670139 -.00015320  00000+0 -28052-3 0  9993
2 65443  97.6028 119.9542 0001337  92.4991  30.9617 15.49176931  3932
STARLINK-35049          
1 65444U 25194L   25267.91670139 -.01996788  00000+0 -47688-1 0  9995
2 65444  97.6027 119.9493 0001706  83.0964  27.4326 15.44881754  3886
STARLINK-35029          
1 65445U 25194M   25267.91670139 -.02051246  00000+0 -44880-1 0  9999
2 65445  97.6024 119.9497 0002222  94.2678  26.1649 15.47505566  3935
STARLINK-34991          
1 65446U 25194N   25267.91670139 -.00067808  00000+0 -12541-2 0  9999
2 65446  97.6030 119.9542 0001486  89.9564  35.4000 15.49221221  3883
STARLINK-34920          
1 65447U 25194P   25267.91670139 -.00065087  00000+0 -12035-2 0  9995
2 65447  97.6029 119.9542 0001553  90.6863  36.5924 15.49218016  3883
STARLINK-35030          
1 65448U 25194Q   25267.91670139 -.00937589  00000+0 -25681-1 0  9991
2 65448  97.6026 119.9419 0001235  89.9081  10.5574 15.39988915  3888
STARLINK-35009          
1 65449U 25194R   25267.91670139 -.00047352  00000+0 -87337-3 0  9990
2 65449  97.6030 119.9543 0001519  92.8508  36.3505 15.49208806  3889
STARLINK-34970          
1 65450U 25194S   25267.91670139 -.00075770  00000+0 -14028-2 0  9993
2 65450  97.6030 119.9566 0001598  84.4371  48.6024 15.49224741  3932
STARLINK-35039          
1 65451U 25194T   25267.91670139 -.01998563  00000+0 -48856-1 0  9994
2 65451  97.6028 119.9566 0001855  87.1321  38.2101 15.44200829  3949
STARLINK-35084          
1 65452U 25194U   25267.91670139 -.00060889  00000+0 -11252-2 0  9996
2 65452  97.6028 119.9588 0001635  92.3719  44.5105 15.49215650  3889
STARLINK-34988          
1 65453U 25194V   25267.91670139 -.00623308  13140-3 -14608-2 0  9999
2 65453  97.5891 120.5523 0001029 136.3698 256.1319 15.96902050  3939
STARLINK-35059          
1 65454U 25194W   25267.91670139  .00369560  00000+0  14425-2 0  9999
2 65454  97.5941 120.3620 0001465 136.2733 194.7817 15.86128553  4696
STARLINK-34728          
1 65455U 25194X   25267.91670139 -.00072991  00000+0 -13509-2 0  9993
2 65455  97.6027 119.9636 0001508  90.5668  53.9942 15.49224142  3932
STARLINK-35005          
1 65456U 25194Y   25267.91670139 -.00086624  00000+0 -16059-2 0  9995
2 65456  97.6026 119.9628 0001543  88.0299  54.6092 15.49231269  3936
STARLINK-35076          
1 65457U 25194Z   25267.91670139 -.00070389  00000+0 -13023-2 0  9995
2 65457  97.6025 119.9646 0001592  88.7198  57.7613 15.49222000  3942
STARLINK-34784          
1 65458U 25195A   25267.91670139 -.01599795  00000+0 -36713-1 0  9995
2 65458  53.1590 312.1454 0001015  81.9020  49.9598 15.45365230  3898
STARLINK-34867          
1 65459U 25195B   25267.91670139 -.00014882  00000+0 -26032-3 0  9999
2 65459  53.1582 312.1264 0001041  86.3722  55.3194 15.49277896  3893
STARLINK-34850          
1 65460U 25195C   25267.91670139 -.00089452  00000+0 -16166-2 0  9992
2 65460  53.1582 312.1226 0001017  96.9436  46.6032 15.49346509  3897
STARLINK-35159          
1 65461U 25195D   25267.91670139 -.00097724  00000+0 -17684-2 0  9990
2 65461  53.1582 312.1182 0001001  97.4973  47.9662 15.49351531  3944
STARLINK-35180          
1 65462U 25195E   25267.91670139 -.00089008  00000+0 -16085-2 0  9991
2 65462  53.1582 312.1144 0000955 104.1291  43.2535 15.49346194  3890
STARLINK-35111          
1 65463U 25195F   25267.91670139 -.00086196  00000+0 -15568-2 0  9992
2 65463  53.1582 312.1106 0001171  92.1945  57.1019 15.49346132  3941
STARLINK-35107          
1 65464U 25195G   25267.91670139 -.01606830  00000+0 -34853-1 0  9994
2 65464  53.1588 312.1110 0001404  73.8740  74.6611 15.47000247  3945
STARLINK-35169          
1 65465U 25195H   25267.91670139 -.00105950  00000+0 -19195-2 0  9994
2 65465  53.1582 312.0979 0001251  95.4994  59.5420 15.49358011  3940
STARLINK-35027          
1 65466U 25195J   25267.91670139 -.00096583  00000+0 -17474-2 0  9994
2 65466  53.1582 312.0941 0001154  84.8936  72.0700 15.49352052  3894
STARLINK-34816          
1 65467U 25195K   25267.91670139 -.00092338  00000+0 -16694-2 0  9992
2 65467  53.1583 312.0903 0001269  85.2369  73.6439 15.49349234  3890
STARLINK-35033          
1 65468U 25195L   25267.91670139 -.00067945  00000+0 -12231-2 0  9992
2 65468  53.1582 312.0791 0001224  92.0814  72.5552 15.49334739  3895
STARLINK-34924          
1 65469U 25195M   25267.91670139 -.01611734  00000+0 -33696-1 0  9992
2 65469  53.1586 312.0751 0001300  72.0608  93.7122 15.48061158  3899
STARLINK-34829          
1 65470U 25195N   25267.91670139 -.00089629  00000+0 -16199-2 0  9995
2 65470  53.1582 312.1021 0001124  86.9366  66.1974 15.49345090  3897
STARLINK-34888          
1 65471U 25195P   25267.91670139 -.00087053  00000+0 -15725-2 0  9999
2 65471  53.1582 312.0860 0001298  85.0470  75.7504 15.49346401  3898
STARLINK-34799          
1 65472U 25195Q   25267.91670139 -.01618814  00000+0 -33613-1 0  9991
2 65472  53.1586 312.0824 0001268  79.2270  82.9464 15.48269862  3892
STARLINK-34762          
1 65473U 25195R   25267.91670139 -.00090234  00000+0 -16308-2 0  9994
2 65473  53.1582 312.0657 0001232  85.6458  84.7367 15.49349092  3890
STARLINK-34998          
1 65474U 25195S   25267.91670139 -.00105154  00000+0 -19049-2 0  9998
2 65474  53.1582 312.0615 0001232  81.9894  90.3090 15.49356686  3789
STARLINK-34832          
1 65475U 25195T   25267.91670139 -.00096095  00000+0 -17386-2 0  9994
2 65475  53.1583 312.0694 0001135  82.4970  85.9701 15.49348317  3894
STARLINK-35098          
1 65476U 25195U   25267.91670139 -.00112879  00000+0 -20474-2 0  9996
2 65476  53.1583 312.0584 0001170  89.5260  84.6926 15.49356725  3956
STARLINK-35071          
1 65477U 25195V   25267.91670139 -.00098752  00000+0 -17872-2 0  9998
2 65477  53.1583 312.0534 0001316  83.5956  92.5371 15.49353120  3958
STARLINK-35093          
1 65478U 25195W   25267.91670139 -.00091956  00000+0 -16624-2 0  9992
2 65478  53.1583 312.0454 0001172  88.8672  91.0997 15.49348985  3954
STARLINK-35096          
1 65479U 25195X   25267.91670139 -.00089994  00000+0 -16265-2 0  9993
2 65479  53.1583 312.0415 0001245  86.0155  95.8697 15.49346799  3904
STARLINK-35040          
1 65480U 25195Y   25267.95986428 -.00185749  00000+0 -27932-2 0  9998
2 65480  53.1587 311.2346 0002708 166.5115 193.5969 15.54851775  4550
STARLINK-35042          
1 65481U 25195Z   25267.91670139 -.00112914  00000+0 -20477-2 0  9995
2 65481  53.1583 312.0495 0001193  96.0697  81.9749 15.49362028  3951
STARLINK-35038          
1 65482U 25195AA  25267.91670139 -.01747000  00000+0 -29434-1 0  9998
2 65482  53.1590 311.4378 0000975  77.5468  42.7825 15.54314448  3959
STARLINK-35037          
1 65483U 25195AB  25267.91670139 -.01747411  00000+0 -29440-1 0  9992
2 65483  53.1590 311.4345 0001103  62.3492  59.8950 15.54314985  3951
STARLINK-35089          
1 65484U 25195AC  25267.91670139 -.01749911  00000+0 -29485-1 0  9999
2 65484  53.1589 311.4265 0001198  76.4883  49.5912 15.54315935  3955
STARLINK-35143          
1 65485U 25195AD  25267.91670139 -.01746269  00000+0 -29415-1 0  9996
2 65485  53.1590 311.4296 0001205  67.6378  56.5197 15.54317101  3907
SHIYAN-29               
1 65486U 25196A   25266.72011809 -.00000238  00000+0  00000+0 0  9993
2 65486  28.5300  21.8887 0089836 131.1932 239.3021  0.98868449   216
CZ-3C R/B               
1 65487U 25196B   25251.41819693  .00025655  00000+0  33348-2 0  9994
2 65487  28.4934  20.6057 6976947 130.0484 315.6750  2.68841397   106
2025-197A               
1 65488U 25197A   25267.41490324  .00010298  00000+0  47611-3 0  9995
2 65488  97.4114  92.9170 0016205 209.6750 150.3568 15.20237307  2886
2025-197B               
1 65489U 25197B   25267.87324986  .00009786  00000+0  44455-3 0  9999
2 65489  97.4115  93.3725 0013798 213.5052 146.5312 15.20888268  2941
2025-197C               
1 65490U 25197C   25267.86955156  .00008951  00000+0  40350-3 0  9992
2 65490  97.4118  93.3780 0014545 218.0163 142.0047 15.21171021  2939
2025-197D               
1 65491U 25197D   25267.86869352  .00012815  00000+0  57411-3 0  9995
2 65491  97.4114  93.3785 0014274 219.2036 140.8167 15.21287754  2932
STARLINK-35226          
1 65492U 25198A   25267.91670139 -.00008142  00000+0 -51350-4 0  9993
2 65492  53.1577 331.9184 0001242  75.4426  10.4961 15.74187012  3686
STARLINK-35242          
1 65493U 25198B   25267.91670139 -.00065334  00000+0 -44499-3 0  9995
2 65493  53.1576 331.9223 0001114 100.6221 343.4034 15.74202461  3688
STARLINK-35223          
1 65494U 25198C   25267.91670139 -.00003295  00000+0 -18219-4 0  9996
2 65494  53.1579 331.9098 0001184  81.1904   8.5878 15.74180346  3682
